{"fetched_at":"2026-03-30T06:02:59Z","count":15439,"tles":[{"name":"STARLINK-1420","line1":"1 45695U 20035AQ  26087.82460055  .00085982  00000+0  11537-2 0  9992","line2":"2 45695  53.0513 289.8414 0004135 198.8121 161.2737 15.57229939322339","category":"Starlink"}]}